<?xml version="1.0" encoding="UTF-8"?>
<kml xmlns="http://www.opengis.net/kml/2.2" xmlns:gx="http://www.google.com/kml/ext/2.2" xmlns:kml="http://www.opengis.net/kml/2.2" xmlns:atom="http://www.w3.org/2005/Atom">
<Document id="document">
	<name>Untitled map</name>
	<gx:CascadingStyle kml:id="__managed_style_03EF1396C63F31367E3F_highlight">
		<Style>
			<IconStyle>
				<scale>1.2</scale>
				<Icon>
					<href>https://earth.google.com/earth/document/icon?color=1976d2&amp;id=2000&amp;scale=4</href>
				</Icon>
				<hotSpot x="64" y="128" xunits="pixels" yunits="insetPixels"/>
			</IconStyle>
			<LabelStyle>
			</LabelStyle>
			<LineStyle>
				<color>ff0080ff</color>
				<width>2.25</width>
			</LineStyle>
			<PolyStyle>
				<color>000080ff</color>
			</PolyStyle>
			<BalloonStyle>
				<displayMode>hide</displayMode>
			</BalloonStyle>
		</Style>
	</gx:CascadingStyle>
	<gx:CascadingStyle kml:id="__managed_style_03EF1396C63F31367E3F_normal">
		<Style>
			<IconStyle>
				<Icon>
					<href>https://earth.google.com/earth/document/icon?color=1976d2&amp;id=2000&amp;scale=4</href>
				</Icon>
				<hotSpot x="64" y="128" xunits="pixels" yunits="insetPixels"/>
			</IconStyle>
			<LabelStyle>
			</LabelStyle>
			<LineStyle>
				<color>ff0080ff</color>
				<width>1.5</width>
			</LineStyle>
			<PolyStyle>
				<color>000080ff</color>
			</PolyStyle>
			<BalloonStyle>
				<displayMode>hide</displayMode>
			</BalloonStyle>
		</Style>
	</gx:CascadingStyle>
	<gx:CascadingStyle kml:id="__managed_style_36EB059E883F31367E3F_highlight">
		<Style>
			<IconStyle>
				<scale>1.2</scale>
				<Icon>
					<href>https://earth.google.com/earth/document/icon?color=1976d2&amp;id=2000&amp;scale=4</href>
				</Icon>
				<hotSpot x="64" y="128" xunits="pixels" yunits="insetPixels"/>
			</IconStyle>
			<LabelStyle>
			</LabelStyle>
			<LineStyle>
				<color>ff33ccff</color>
				<width>2.25</width>
			</LineStyle>
			<PolyStyle>
				<color>0033ccff</color>
			</PolyStyle>
			<BalloonStyle>
				<displayMode>hide</displayMode>
			</BalloonStyle>
		</Style>
	</gx:CascadingStyle>
	<StyleMap id="__managed_style_4E0A0E6FC43F31367E3F">
		<Pair>
			<key>normal</key>
			<styleUrl>#__managed_style_4E0A0E6FC43F31367E3F_normal</styleUrl>
		</Pair>
		<Pair>
			<key>highlight</key>
			<styleUrl>#__managed_style_4E0A0E6FC43F31367E3F_highlight</styleUrl>
		</Pair>
	</StyleMap>
	<gx:CascadingStyle kml:id="__managed_style_36EB059E883F31367E3F_normal">
		<Style>
			<IconStyle>
				<Icon>
					<href>https://earth.google.com/earth/document/icon?color=1976d2&amp;id=2000&amp;scale=4</href>
				</Icon>
				<hotSpot x="64" y="128" xunits="pixels" yunits="insetPixels"/>
			</IconStyle>
			<LabelStyle>
			</LabelStyle>
			<LineStyle>
				<color>ff33ccff</color>
				<width>1.5</width>
			</LineStyle>
			<PolyStyle>
				<color>0033ccff</color>
			</PolyStyle>
			<BalloonStyle>
				<displayMode>hide</displayMode>
			</BalloonStyle>
		</Style>
	</gx:CascadingStyle>
	<StyleMap id="__managed_style_36EB059E883F31367E3F">
		<Pair>
			<key>normal</key>
			<styleUrl>#__managed_style_36EB059E883F31367E3F_normal</styleUrl>
		</Pair>
		<Pair>
			<key>highlight</key>
			<styleUrl>#__managed_style_36EB059E883F31367E3F_highlight</styleUrl>
		</Pair>
	</StyleMap>
	<gx:CascadingStyle kml:id="__managed_style_119633DF823F31367E3F_highlight">
		<Style>
			<IconStyle>
				<scale>1.2</scale>
				<Icon>
					<href>https://earth.google.com/earth/document/icon?color=1976d2&amp;id=2000&amp;scale=4</href>
				</Icon>
				<hotSpot x="64" y="128" xunits="pixels" yunits="insetPixels"/>
			</IconStyle>
			<LabelStyle>
			</LabelStyle>
			<LineStyle>
				<color>ff99ffff</color>
				<width>2.25</width>
			</LineStyle>
			<PolyStyle>
				<color>0099ffff</color>
			</PolyStyle>
			<BalloonStyle>
				<displayMode>hide</displayMode>
			</BalloonStyle>
		</Style>
	</gx:CascadingStyle>
	<gx:CascadingStyle kml:id="__managed_style_119633DF823F31367E3F_normal">
		<Style>
			<IconStyle>
				<Icon>
					<href>https://earth.google.com/earth/document/icon?color=1976d2&amp;id=2000&amp;scale=4</href>
				</Icon>
				<hotSpot x="64" y="128" xunits="pixels" yunits="insetPixels"/>
			</IconStyle>
			<LabelStyle>
			</LabelStyle>
			<LineStyle>
				<color>ff99ffff</color>
				<width>1.5</width>
			</LineStyle>
			<PolyStyle>
				<color>0099ffff</color>
			</PolyStyle>
			<BalloonStyle>
				<displayMode>hide</displayMode>
			</BalloonStyle>
		</Style>
	</gx:CascadingStyle>
	<gx:CascadingStyle kml:id="__managed_style_4E0A0E6FC43F31367E3F_highlight">
		<Style>
			<IconStyle>
				<scale>1.2</scale>
				<Icon>
					<href>https://earth.google.com/earth/document/icon?color=1976d2&amp;id=2000&amp;scale=4</href>
				</Icon>
				<hotSpot x="64" y="128" xunits="pixels" yunits="insetPixels"/>
			</IconStyle>
			<LabelStyle>
			</LabelStyle>
			<LineStyle>
				<color>ff000099</color>
				<width>2.25</width>
			</LineStyle>
			<PolyStyle>
				<color>00000099</color>
			</PolyStyle>
			<BalloonStyle>
				<displayMode>hide</displayMode>
			</BalloonStyle>
		</Style>
	</gx:CascadingStyle>
	<StyleMap id="__managed_style_119633DF823F31367E3F">
		<Pair>
			<key>normal</key>
			<styleUrl>#__managed_style_119633DF823F31367E3F_normal</styleUrl>
		</Pair>
		<Pair>
			<key>highlight</key>
			<styleUrl>#__managed_style_119633DF823F31367E3F_highlight</styleUrl>
		</Pair>
	</StyleMap>
	<gx:CascadingStyle kml:id="__managed_style_24CA80CD1B3F31367E3F_highlight">
		<Style>
			<IconStyle>
				<scale>1.2</scale>
				<Icon>
					<href>https://earth.google.com/earth/document/icon?color=1976d2&amp;id=2000&amp;scale=4</href>
				</Icon>
				<hotSpot x="64" y="128" xunits="pixels" yunits="insetPixels"/>
			</IconStyle>
			<LabelStyle>
			</LabelStyle>
			<LineStyle>
				<color>ff2dc0fb</color>
				<width>6</width>
			</LineStyle>
			<PolyStyle>
				<color>40ffffff</color>
			</PolyStyle>
			<BalloonStyle>
				<displayMode>hide</displayMode>
			</BalloonStyle>
		</Style>
	</gx:CascadingStyle>
	<gx:CascadingStyle kml:id="__managed_style_4E0A0E6FC43F31367E3F_normal">
		<Style>
			<IconStyle>
				<Icon>
					<href>https://earth.google.com/earth/document/icon?color=1976d2&amp;id=2000&amp;scale=4</href>
				</Icon>
				<hotSpot x="64" y="128" xunits="pixels" yunits="insetPixels"/>
			</IconStyle>
			<LabelStyle>
			</LabelStyle>
			<LineStyle>
				<color>ff000099</color>
				<width>1.5</width>
			</LineStyle>
			<PolyStyle>
				<color>00000099</color>
			</PolyStyle>
			<BalloonStyle>
				<displayMode>hide</displayMode>
			</BalloonStyle>
		</Style>
	</gx:CascadingStyle>
	<StyleMap id="__managed_style_03EF1396C63F31367E3F">
		<Pair>
			<key>normal</key>
			<styleUrl>#__managed_style_03EF1396C63F31367E3F_normal</styleUrl>
		</Pair>
		<Pair>
			<key>highlight</key>
			<styleUrl>#__managed_style_03EF1396C63F31367E3F_highlight</styleUrl>
		</Pair>
	</StyleMap>
	<gx:CascadingStyle kml:id="__managed_style_24CA80CD1B3F31367E3F_normal">
		<Style>
			<IconStyle>
				<Icon>
					<href>https://earth.google.com/earth/document/icon?color=1976d2&amp;id=2000&amp;scale=4</href>
				</Icon>
				<hotSpot x="64" y="128" xunits="pixels" yunits="insetPixels"/>
			</IconStyle>
			<LabelStyle>
			</LabelStyle>
			<LineStyle>
				<color>ff2dc0fb</color>
				<width>4</width>
			</LineStyle>
			<PolyStyle>
				<color>40ffffff</color>
			</PolyStyle>
			<BalloonStyle>
				<displayMode>hide</displayMode>
			</BalloonStyle>
		</Style>
	</gx:CascadingStyle>
	<StyleMap id="__managed_style_24CA80CD1B3F31367E3F">
		<Pair>
			<key>normal</key>
			<styleUrl>#__managed_style_24CA80CD1B3F31367E3F_normal</styleUrl>
		</Pair>
		<Pair>
			<key>highlight</key>
			<styleUrl>#__managed_style_24CA80CD1B3F31367E3F_highlight</styleUrl>
		</Pair>
	</StyleMap>
	<Folder id="0C72E00F623F31367E34">
		<name>Dallas TX USA Median Thermal Damage</name>
		<open>1</open>
		<styleUrl>#__managed_style_24CA80CD1B3F31367E3F</styleUrl>
		<Placemark id="153D70E3623F31367E34">
			<name>Serious Burn (2nd-deg)</name>
			<description><![CDATA[<html><table border="1">
<tr><td>DamageLevel</td><td>Serious Burn (2nd-deg)</td></tr>
</table><br></br></html>]]></description>
			<styleUrl>#__managed_style_119633DF823F31367E3F</styleUrl>
			<Polygon>
				<outerBoundaryIs>
					<LinearRing>
						<coordinates>
							-96.80888899999999,33.1800081295821,0 -96.82400789676841,33.1798074388445,0 -96.83911151615369,33.1792055694411,0 -96.8541845968451,33.1782031295859,0 -96.8692119096561,33.1768011322574,0 -96.88417827353848,33.175000994133,0 -96.8990685715371,33.1728045340975,0 -96.91386776666651,33.17021397133,0 -96.9285609176911,33.1672319229698,0 -96.9431331947887,33.1638614013645,0 -96.9575698950796,33.1601058109042,0 -96.971856458001,33.1559689444451,0 -96.9859784805107,33.1514549793271,0 -96.99992173210042,33.1465684729898,0 -97.01367216960139,33.141314358193,0 -97.027215951765,33.1356979378467,0 -97.04053945360218,33.1297248794573,0 -97.0536292804635,33.1234012091963,0 -97.0664722818461,33.1167333055989,0 -97.07905556490938,33.1097278928998,0 -97.09136650768659,33.1023920340146,0 -97.10339277197649,33.094733123174,0 -97.11512231590089,33.0867588782212,0 -97.1265434061155,33.0784773325799,0 -97.1376446296607,33.069896826903,0 -97.14841490543949,33.0610260004126,0 -97.15884349531152,33.0518737819394,0 -97.16892001479131,33.042449380674,0 -97.17863444334158,33.0327622766393,0 -97.18797713424982,33.022822210895,0 -97.19693882408019,33.012639175487,0 -97.20551064169229,33.0022234031503,0 -97.2136841168177,32.99158535678,0 -97.2214511881878,32.9807357186798,0 -97.22880421120659,32.9696853796019,0 -97.23573596516108,32.9584454275888,0 -97.24223965996519,32.9470271366307,0 -97.248308942432,32.9354419551507,0 -97.25393790207021,32.9237014943287,0 -97.2591210764008,32.9118175162799,0 -97.2638534557926,32.8998019220977,0 -97.26813048781271,32.8876667397746,0 -97.27194808109101,32.8754241120157,0 -97.2753026086983,32.8630862839545,0 -97.2781909110365,32.8506655907874,0 -97.2806102982414,32.8381744453369,0 -97.2825585520996,32.825625325558,0 -97.2840339274791,32.8130307620008,0 -97.28503515327689,32.8004033252408,0 -97.2855614328853,32.7877556132912,0 -97.28561244417889,32.775100239009,0 -97.2851883390273,32.7624498175077,0 -97.2842897423355,32.7498169535893,0 -97.2829177506169,32.7372142292081,0 -97.281073930104,32.7246541909786,0 -97.2787603144006,32.7121493377387,0 -97.27597940168241,32.6997121081825,0 -97.27273415145029,32.6873548685722,0 -97.2690279808438,32.6750899005423,0 -97.2648647605203,32.6629293890074,0 -97.2602488101073,32.6508854101845,0 -97.25518489323498,32.6389699197417,0 -97.2496782121563,32.627194741084,0 -97.24373440196172,32.6155715537871,0 -97.2373595243986,32.6041118821897,0 -97.23056006130111,32.5928270841548,0 -97.2233429076401,32.5817283400105,0 -97.21571536420299,32.5708266416794,0 -97.20768512990949,32.5601327820073,0 -97.19926029377611,32.5496573443004,0 -97.1904493265349,32.53941069208,0 -97.18126107191921,32.5294029590634,0 -97.1717047376236,32.5196440393811,0 -97.16178988594891,32.5101435780369,0 -97.1515264241427,32.5009109616216,0 -97.14092459444291,32.491955309285,0 -97.1299949638384,32.4832854639773,0 -97.1187484135525,32.4749099839651,0 -97.10719612826368,32.46683713463,0 -97.09534958507069,32.4590748805566,0 -97.08322054221441,32.4516308779168,0 -97.07082102756618,32.444512467156,0 -97.0581633268941,32.4377266659882,0 -97.04525997191601,32.431280162705,0 -97.0321237281518,32.425179309805,0 -97.01876758258531,32.4194301179474,0 -97.00520473114561,32.4140382502361,0 -96.9914485660192,32.4090090168382,0 -96.9775126628046,32.4043473699417,0 -96.9634107675183,32.400057899056,0 -96.9491567834653,32.3961448266591,0 -96.93476475798261,32.3926120041962,0 -96.9202488690691,32.3894629084304,0 -96.90562341191051,32.386700638151,0 -96.89090278531199,32.3843279112405,0 -96.87610147804821,32.3823470621032,0 -96.86123405514191,32.3807600394574,0 -96.84631514408369,32.3795684044926,0 -96.83135942100068,32.3787733293939,0 -96.81638159678789,32.378375596234,0 -96.80139640321218,32.378375596234,0 -96.78641857899929,32.3787733293939,0 -96.77146285591628,32.3795684044926,0 -96.75654394485809,32.3807600394574,0 -96.7416765219519,32.3823470621032,0 -96.72687521468801,32.3843279112405,0 -96.71215458808949,32.386700638151,0 -96.6975291309309,32.3894629084304,0 -96.6830132420174,32.3926120041962,0 -96.66862121653482,32.3961448266591,0 -96.6543672324817,32.4000578990559,0 -96.64026533719552,32.4043473699417,0 -96.6263294339808,32.4090090168382,0 -96.6125732688544,32.4140382502361,0 -96.5990104174147,32.4194301179474,0 -96.5856542718482,32.425179309805,0 -96.572518028084,32.431280162705,0 -96.5596146731059,32.4377266659881,0 -96.54695697243379,32.444512467156,0 -96.5345574577857,32.4516308779168,0 -96.52242841492929,32.4590748805566,0 -96.51058187173632,32.4668371346299,0 -96.49902958644751,32.4749099839651,0 -96.4877830361616,32.4832854639773,0 -96.47685340555711,32.491955309285,0 -96.4662515758573,32.5009109616216,0 -96.45598811405111,32.5101435780369,0 -96.4460732623764,32.519644039381,0 -96.43651692808079,32.5294029590634,0 -96.4273286734651,32.53941069208,0 -96.41851770622389,32.5496573443004,0 -96.41009287009048,32.5601327820072,0 -96.40206263579701,32.5708266416793,0 -96.3944350923598,32.5817283400105,0 -96.38721793869891,32.5928270841548,0 -96.3804184756014,32.6041118821897,0 -96.37404359803828,32.6155715537871,0 -96.3680997878437,32.627194741084,0 -96.36259310676502,32.6389699197417,0 -96.3575291898927,32.6508854101845,0 -96.3529132394797,32.6629293890074,0 -96.3487500191562,32.6750899005423,0 -96.34504384854969,32.6873548685722,0 -96.3417985983176,32.6997121081824,0 -96.3390176855994,32.7121493377387,0 -96.336704069896,32.7246541909786,0 -96.3348602493831,32.7372142292081,0 -96.3334882576645,32.7498169535893,0 -96.3325896609727,32.7624498175077,0 -96.33216555582111,32.775100239009,0 -96.3322165671147,32.7877556132912,0 -96.33274284672309,32.8004033252408,0 -96.3337440725209,32.8130307620007,0 -96.3352194479004,32.825625325558,0 -96.3371677017586,32.8381744453369,0 -96.33958708896351,32.8506655907874,0 -96.3424753913016,32.8630862839545,0 -96.34582991890899,32.8754241120157,0 -96.34964751218729,32.8876667397746,0 -96.3539245442074,32.8998019220977,0 -96.3586569235992,32.9118175162799,0 -96.3638400979298,32.9237014943287,0 -96.36946905756801,32.9354419551506,0 -96.37553834003479,32.9470271366307,0 -96.38204203483892,32.9584454275888,0 -96.38897378879338,32.9696853796019,0 -96.3963268118122,32.9807357186798,0 -96.4040938831823,32.99158535678,0 -96.41226735830769,33.0022234031503,0 -96.42083917591978,33.012639175487,0 -96.4298008657502,33.022822210895,0 -96.43914355665839,33.0327622766393,0 -96.44885798520869,33.042449380674,0 -96.4589345046885,33.0518737819394,0 -96.46936309456051,33.0610260004125,0 -96.4801333703393,33.069896826903,0 -96.4912345938845,33.0784773325799,0 -96.50265568409911,33.0867588782212,0 -96.51438522802351,33.094733123174,0 -96.52641149231329,33.1023920340146,0 -96.53872243509059,33.1097278928998,0 -96.5513057181539,33.1167333055989,0 -96.5641487195364,33.1234012091963,0 -96.57723854639779,33.1297248794573,0 -96.5905620482349,33.1356979378467,0 -96.60410583039861,33.141314358193,0 -96.61785626789948,33.1465684729898,0 -96.63179951948931,33.1514549793271,0 -96.645921541999,33.1559689444451,0 -96.6602081049204,33.1601058109042,0 -96.6746448052112,33.1638614013645,0 -96.6892170823089,33.1672319229698,0 -96.70391023333349,33.17021397133,0 -96.7187094284629,33.1728045340975,0 -96.73359972646149,33.175000994133,0 -96.7485660903439,33.1768011322574,0 -96.7635934031549,33.1782031295859,0 -96.77866648384629,33.1792055694411,0 -96.79377010323161,33.1798074388445,0 -96.80888899999999,33.1800081295821,0 
						</coordinates>
					</LinearRing>
				</outerBoundaryIs>
			</Polygon>
		</Placemark>
		<Placemark id="2BF0DC41013F31367E34">
			<name>Severe Burn (3rd-deg)</name>
			<description><![CDATA[<html><table border="1">
<tr><td>DamageLevel</td><td>Severe Burn (3rd-deg)</td></tr>
</table><br></br></html>]]></description>
			<styleUrl>#__managed_style_36EB059E883F31367E3F</styleUrl>
			<Polygon>
				<outerBoundaryIs>
					<LinearRing>
						<coordinates>
							-96.80888899999999,33.0883043054265,0 -96.8205368879261,33.0881496894752,0 -96.83217304268059,33.0876859973758,0 -96.8437857432846,33.0869136962311,0 -96.8553632931298,33.0858335640056,0 -96.8668940321287,33.0844466887177,0 -96.8783663488219,33.0827544673084,0 -96.88976869242839,33.0807586041902,0 -96.90108958482641,33.0784611094761,0 -96.91231763244811,33.0758642968921,0 -96.9234415380777,33.0729707813749,0 -96.93445011253668,33.0697834763577,0 -96.9453322862439,33.0663055907477,0 -96.956077120638,33.0625406255977,0 -96.96667381944791,33.0584923704776,0 -96.977111739799,33.0541648995474,0 -96.98738040314349,33.0495625673388,0 -96.9974695060012,33.0446900042486,0 -97.00736893050011,33.0395521117494,0 -97.0170687547047,33.0341540573237,0 -97.0265592627203,33.0285012691268,0 -97.03583095456371,33.022599430384,0 -97.0448745557882,33.0164544735295,0 -97.0536810268535,33.0100725740933,0 -97.0622415722309,33.0034601443424,0 -97.0705476492339,32.9966238266849,0 -97.0785909765652,32.9895704868421,0 -97.086363542572,32.9823072067991,0 -97.09385761320119,32.9748412775393,0 -97.1010657396459,32.9671801915728,0 -97.10798076567789,32.9593316352646,0 -97.1145958346565,32.9513034809747,0 -97.1209043962108,32.9431037790143,0 -97.1269002125854,32.9347407494311,0 -97.13257736464742,32.9262227736296,0 -97.1379302575484,32.9175583858367,0 -97.1429536260359,32.9087562644226,0 -97.14764253941152,32.8998252230846,0 -97.1519924061314,32.8907742019046,0 -97.1559989780465,32.8816122582891,0 -97.15965835427809,32.8723485578023,0 -97.162966984728,32.8629923649001,0 -97.16592167322111,32.8535530335769,0 -97.1685195802782,32.8440399979335,0 -97.1707582255183,32.8344627626766,0 -97.1726354896899,32.8248308935596,0 -97.1741496163316,32.8151540077742,0 -97.1752992130605,32.8054417643029,0 -97.1760832524914,32.7957038542427,0 -97.17650107278479,32.785949991109,0 -97.17655237782891,32.7761899011298,0 -97.17623723705309,32.7664333135404,0 -97.17555608487881,32.7566899508873,0 -97.17450971980711,32.7469695193519,0 -97.17309930314852,32.7372816991031,0 -97.17132635739641,32.7276361346881,0 -97.16919276424761,32.7180424254716,0 -97.16670076227489,32.7085101161311,0 -97.16385294425498,32.6990486872198,0 -97.16065225415591,32.6896675458036,0 -97.1571019837892,32.6803760161837,0 -97.15320576913132,32.6711833307111,0 -97.1489675863199,32.6620986207042,0 -97.14439174732992,32.6531309074759,0 -97.13948289533541,32.6442890934799,0 -97.13424599976319,32.6355819535846,0 -97.1286863510439,32.6270181264812,0 -97.1228095550677,32.6186061062357,0 -97.11662152734971,32.6103542339917,0 -97.11012848691368,32.6022706898316,0 -97.10333694989939,32.5943634848038,0 -97.09625372290169,32.5866404531226,0 -97.08888589604749,32.5791092445494,0 -97.08124083581889,32.5717773169597,0 -97.07332617763041,32.5646519291045,0 -97.06514981816612,32.5577401335716,0 -97.05671990748631,32.5510487699537,0 -97.04804484091099,32.5445844582279,0 -97.0391332506876,32.5383535923551,0 -97.029993997452,32.5323623341013,0 -97.02063616149059,32.5266166070899,0 -97.0110690338113,32.5211220910876,0 -97.0013021070329,32.5158842165298,0 -96.9913450660998,32.51090815929,0 -96.98120777883268,32.5061988356984,0 -96.9709002863214,32.5017608978132,0 -96.9604327931701,32.4975987289484,0 -96.94981565760359,32.4937164394631,0 -96.9390593814426,32.4901178628153,0 -96.9281745999575,32.4868065518827,0 -96.91717207160939,32.4837857755549,0 -96.9060626676868,32.4810585155997,0 -96.8948573618477,32.4786274638054,0 -96.883567219575,32.4764950194019,0 -96.8722033875559,32.4746632867633,0 -96.86077708299192,32.4731340733929,0 -96.84929958285082,32.4719088881934,0 -96.83778221306831,32.4709889400229,0 -96.82623633770849,32.4703751365381,0 -96.814673348093,32.4700680833265,0 -96.80310465190701,32.4700680833265,0 -96.79154166229148,32.4703751365381,0 -96.77999578693169,32.4709889400229,0 -96.7684784171492,32.4719088881934,0 -96.75700091700809,32.4731340733929,0 -96.74557461244412,32.4746632867633,0 -96.734210780425,32.4764950194019,0 -96.7229206381523,32.4786274638054,0 -96.7117153323132,32.4810585155997,0 -96.70060592839062,32.4837857755549,0 -96.6896034000425,32.4868065518827,0 -96.67871861855741,32.4901178628153,0 -96.66796234239641,32.4937164394631,0 -96.6573452068299,32.4975987289484,0 -96.64687771367861,32.5017608978132,0 -96.63657022116722,32.5061988356984,0 -96.62643293390022,32.51090815929,0 -96.61647589296712,32.5158842165298,0 -96.60670896618861,32.5211220910876,0 -96.59714183850942,32.5266166070899,0 -96.58778400254801,32.5323623341013,0 -96.5786447493124,32.5383535923551,0 -96.56973315908898,32.5445844582279,0 -96.56105809251369,32.5510487699537,0 -96.55262818183388,32.5577401335716,0 -96.54445182236961,32.5646519291045,0 -96.53653716418108,32.5717773169597,0 -96.52889210395251,32.5791092445494,0 -96.52152427709829,32.5866404531226,0 -96.51444105010061,32.5943634848038,0 -96.50764951308629,32.6022706898316,0 -96.50115647265029,32.6103542339917,0 -96.49496844493231,32.6186061062357,0 -96.48909164895601,32.6270181264812,0 -96.48353200023681,32.6355819535846,0 -96.4782951046646,32.6442890934799,0 -96.47338625267008,32.6531309074759,0 -96.46881041368012,32.6620986207042,0 -96.4645722308687,32.6711833307111,0 -96.46067601621081,32.6803760161837,0 -96.4571257458441,32.6896675458036,0 -96.45392505574499,32.6990486872198,0 -96.45107723772512,32.7085101161311,0 -96.44858523575239,32.7180424254716,0 -96.44645164260361,32.7276361346881,0 -96.44467869685148,32.7372816991031,0 -96.44326828019291,32.7469695193519,0 -96.44222191512119,32.7566899508873,0 -96.44154076294679,32.7664333135404,0 -96.44122562217109,32.7761899011298,0 -96.44127692721518,32.785949991109,0 -96.44169474750861,32.7957038542427,0 -96.44247878693942,32.8054417643029,0 -96.4436283836684,32.8151540077742,0 -96.44514251031011,32.8248308935596,0 -96.4470197744817,32.8344627626766,0 -96.4492584197218,32.8440399979335,0 -96.4518563267788,32.8535530335769,0 -96.454811015272,32.8629923649001,0 -96.45811964572189,32.8723485578023,0 -96.4617790219534,32.8816122582891,0 -96.4657855938686,32.8907742019046,0 -96.47013546058848,32.8998252230846,0 -96.4748243739641,32.9087562644226,0 -96.4798477424515,32.9175583858367,0 -96.48520063535248,32.9262227736296,0 -96.4908777874146,32.9347407494311,0 -96.4968736037892,32.9431037790143,0 -96.5031821653434,32.9513034809747,0 -96.50979723432209,32.9593316352646,0 -96.516712260354,32.9671801915728,0 -96.52392038679881,32.9748412775394,0 -96.531414457428,32.9823072067991,0 -96.53918702343481,32.9895704868421,0 -96.54723035076611,32.9966238266849,0 -96.555536427769,33.0034601443424,0 -96.5640969731465,33.0100725740933,0 -96.5729034442117,33.0164544735295,0 -96.58194704543629,33.022599430384,0 -96.5912187372797,33.0285012691268,0 -96.60070924529531,33.0341540573237,0 -96.6104090694998,33.0395521117494,0 -96.62030849399881,33.0446900042486,0 -96.63039759685648,33.0495625673388,0 -96.640666260201,33.0541648995474,0 -96.6511041805521,33.0584923704776,0 -96.661700879362,33.0625406255977,0 -96.6724457137561,33.0663055907477,0 -96.68332788746329,33.0697834763577,0 -96.69433646192221,33.0729707813749,0 -96.70546036755191,33.0758642968921,0 -96.71668841517359,33.0784611094761,0 -96.72800930757161,33.0807586041902,0 -96.7394116511781,33.0827544673084,0 -96.7508839678712,33.0844466887177,0 -96.7624147068702,33.0858335640056,0 -96.7739922567154,33.0869136962311,0 -96.78560495731941,33.0876859973758,0 -96.79724111207391,33.0881496894752,0 -96.80888899999999,33.0883043054265,0 
						</coordinates>
					</LinearRing>
				</outerBoundaryIs>
			</Polygon>
		</Placemark>
		<Placemark id="300A3F2BA33F31367E34">
			<name>Critical Burn (clothing)</name>
			<description><![CDATA[<html><table border="1">
<tr><td>DamageLevel</td><td>Critical Burn (clothing)</td></tr>
</table><br></br></html>]]></description>
			<styleUrl>#__managed_style_03EF1396C63F31367E3F</styleUrl>
			<Polygon>
				<outerBoundaryIs>
					<LinearRing>
						<coordinates>
							-96.80888899999999,32.9972345030032,0 -96.81709703092579,32.997125548299,0 -96.82529681931599,32.9967987936018,0 -96.833480131096,32.9962545670446,0 -96.84163874910401,32.9954934151417,0 -96.84976448152339,32.9945161022274,0 -96.85784917028768,32.9933236096714,0 -96.86588469944699,32.9919171348717,0 -96.8738630034881,32.9902980900255,0 -96.88177607559849,32.9884681006804,0 -96.8896159758643,32.9864290040669,0 -96.8973748393951,32.9841828472141,0 -96.9050448843642,32.9817318848506,0 -96.9126184199576,32.9790785770937,0 -96.92008785422141,32.9762255869284,0 -96.92744570180071,32.9731757774797,0 -96.9346845915597,32.969932209081,0 -96.94179727407651,32.9664981361415,0 -96.94877662900331,32.9628770038171,0 -96.95561567228469,32.9590724444872,0 -96.96230756322689,32.955088274042,0 -96.9688456114087,32.9509284879844,0 -96.9752232834291,32.9465972573503,0 -96.9814342094826,32.9420989244524,0 -96.98747218975761,32.9374379984514,0 -96.9933312006481,32.9326191507605,0 -96.9990054007763,32.9276472102867,0 -97.00448913681662,32.9225271585152,0 -97.00977694911782,32.9172641244425,0 -97.0148635771158,32.911863379362,0 -97.01974396453299,32.9063303315097,0 -97.02441326435978,32.9006705205739,0 -97.0288668436113,32.8948896120767,0 -97.0331002878572,32.8889933916315,0 -97.0371094055195,32.8829877590835,0 -97.04089023193401,32.8768787225397,0 -97.0444390331734,32.8706723922936,0 -97.0477523096265,32.8643749746525,0 -97.050826799333,32.8579927656723,0 -97.0536594810696,32.8515321448076,0 -97.05624757718472,32.8449995684831,0 -97.0585885561818,32.838401563593,0 -97.06068013504721,32.8317447209355,0 -97.06252028132178,32.8250356885889,0 -97.06410721491601,32.8182811652359,0 -97.0654394096661,32.8114878934431,0 -97.0665155946317,32.8046626529034,0 -97.06733475513381,32.7978122536466,0 -97.0678961335334,32.7909435292262,0 -97.0681992297513,32.784063329889,0 -97.06824380152858,32.7771785157345,0 -97.06802986442889,32.7702959498705,0 -97.06755769158411,32.7634224915722,0 -97.06682781318329,32.7565649894515,0 -97.0658410157078,32.7497302746434,0 -97.06459834091319,32.7429251540156,0 -97.06310108456022,32.7361564034088,0 -97.06135079489718,32.7294307609141,0 -97.0593492708964,32.7227549201932,0 -97.05709856024629,32.71613552385,0 -97.05460095710271,32.7095791568568,0 -97.0518589996033,32.7030923400453,0 -97.0488754671463,32.6966815236652,0 -97.0456533774387,32.6903530810186,0 -97.042195983317,32.6841133021762,0 -97.0385067693442,32.6779683877797,0 -97.03458944818721,32.6719244429387,0 -97.0304479567789,32.6659874712259,0 -97.02608645226871,32.6601633687765,0 -97.02150930776739,32.6544579184991,0 -97.0167211078888,32.6488767844011,0 -97.0117266440955,32.6434255060352,0 -97.00653090985169,32.6381094930725,0 -97.00113909558929,32.6329340200063,0 -96.9955565834918,32.6279042209917,0 -96.9897889421018,32.6230250848268,0 -96.9838419207579,32.6183014500784,0 -96.97772144386541,32.613738000358,0 -96.9714336050076,32.6093392597519,0 -96.9649846609029,32.60510958841,0 -96.9583810252139,32.6010531782962,0 -96.9516292622144,32.5971740491057,0 -96.9447360803199,32.5934760443521,0 -96.9377083254889,32.5899628276275,0 -96.93055297449961,32.5866378790404,0 -96.92327712810972,32.5835044918323,0 -96.9158880041049,32.5805657691786,0 -96.9083929302429,32.5778246211748,0 -96.90079933709949,32.5752837620115,0 -96.89311475082199,32.5729457073403,0 -96.885346785799,32.570812771834,0 -96.877503137251,32.5688870669411,0 -96.86959157374881,32.5671704988397,0 -96.86161992966838,32.5656647665893,0 -96.85359609758611,32.5643713604849,0 -96.84552802062278,32.5632915606129,0 -96.837423684744,32.5624264356113,0 -96.82929111102111,32.561776841635,0 -96.82113834786261,32.5613434215263,0 -96.8129734632204,32.5611266041932,0 -96.80480453677961,32.5611266041932,0 -96.7966396521374,32.5613434215263,0 -96.78848688897889,32.561776841635,0 -96.78035431525601,32.5624264356113,0 -96.77224997937719,32.5632915606129,0 -96.7641819024139,32.5643713604849,0 -96.75615807033159,32.5656647665893,0 -96.74818642625119,32.5671704988397,0 -96.74027486274902,32.5688870669411,0 -96.732431214201,32.570812771834,0 -96.72466324917798,32.5729457073403,0 -96.71697866290049,32.5752837620115,0 -96.7093850697571,32.5778246211748,0 -96.7018899958951,32.5805657691786,0 -96.6945008718903,32.5835044918323,0 -96.6872250255003,32.5866378790404,0 -96.680069674511,32.5899628276275,0 -96.6730419196801,32.5934760443521,0 -96.66614873778562,32.5971740491057,0 -96.65939697478611,32.6010531782962,0 -96.65279333909712,32.60510958841,0 -96.6463443949924,32.6093392597519,0 -96.6400565561346,32.613738000358,0 -96.6339360792421,32.6183014500784,0 -96.6279890578982,32.6230250848268,0 -96.62222141650821,32.6279042209917,0 -96.61663890441062,32.6329340200063,0 -96.61124709014821,32.6381094930725,0 -96.6060513559045,32.6434255060352,0 -96.6010568921112,32.6488767844011,0 -96.59626869223258,32.6544579184991,0 -96.59169154773119,32.6601633687765,0 -96.5873300432211,32.6659874712259,0 -96.58318855181281,32.6719244429387,0 -96.57927123065581,32.6779683877797,0 -96.575582016683,32.6841133021762,0 -96.5721246225613,32.6903530810186,0 -96.5689025328537,32.6966815236652,0 -96.5659190003967,32.7030923400453,0 -96.56317704289729,32.7095791568568,0 -96.56067943975368,32.71613552385,0 -96.5584287291035,32.7227549201932,0 -96.55642720510279,32.7294307609141,0 -96.55467691543979,32.7361564034088,0 -96.55317965908679,32.7429251540156,0 -96.55193698429221,32.7497302746434,0 -96.55095018681671,32.7565649894515,0 -96.5502203084159,32.7634224915722,0 -96.54974813557109,32.7702959498705,0 -96.54953419847139,32.7771785157345,0 -96.5495787702487,32.784063329889,0 -96.54988186646661,32.7909435292262,0 -96.5504432448662,32.7978122536466,0 -96.55126240536821,32.8046626529034,0 -96.5523385903339,32.8114878934431,0 -96.55367078508401,32.8182811652359,0 -96.55525771867822,32.8250356885889,0 -96.55709786495279,32.8317447209355,0 -96.5591894438181,32.838401563593,0 -96.56153042281528,32.8449995684831,0 -96.5641185189304,32.8515321448076,0 -96.56695120066691,32.8579927656723,0 -96.5700256903735,32.8643749746525,0 -96.5733389668266,32.8706723922936,0 -96.576887768066,32.8768787225397,0 -96.5806685944805,32.8829877590835,0 -96.58467771214281,32.8889933916315,0 -96.58891115638872,32.8948896120767,0 -96.59336473564019,32.9006705205739,0 -96.59803403546701,32.9063303315097,0 -96.6029144228842,32.911863379362,0 -96.60800105088208,32.9172641244425,0 -96.61328886318339,32.9225271585152,0 -96.6187725992237,32.9276472102867,0 -96.6244467993519,32.9326191507605,0 -96.6303058102424,32.9374379984514,0 -96.6363437905173,32.9420989244524,0 -96.6425547165709,32.9465972573503,0 -96.64893238859121,32.9509284879844,0 -96.65547043677311,32.955088274042,0 -96.66216232771529,32.9590724444872,0 -96.6690013709967,32.9628770038171,0 -96.67598072592349,32.9664981361415,0 -96.6830934084402,32.969932209081,0 -96.69033229819929,32.9731757774797,0 -96.69769014577859,32.9762255869284,0 -96.70515958004241,32.9790785770937,0 -96.7127331156357,32.9817318848506,0 -96.7204031606049,32.9841828472141,0 -96.7281620241357,32.9864290040669,0 -96.73600192440151,32.9884681006804,0 -96.7439149965118,32.9902980900255,0 -96.75189330055299,32.9919171348717,0 -96.75992882971229,32.9933236096714,0 -96.76801351847659,32.9945161022274,0 -96.77613925089599,32.9954934151417,0 -96.78429786890401,32.9962545670446,0 -96.79248118068401,32.9967987936018,0 -96.80068096907419,32.997125548299,0 -96.80888899999999,32.9972345030032,0 
						</coordinates>
					</LinearRing>
				</outerBoundaryIs>
			</Polygon>
		</Placemark>
		<Placemark id="4D3A9CFB0E3F31367E34">
			<name>Unsurvivable Burn (structures)</name>
			<description><![CDATA[<html><table border="1">
<tr><td>DamageLevel</td><td>Unsurvivable Burn (structures)</td></tr>
</table><br></br></html>]]></description>
			<styleUrl>#__managed_style_4E0A0E6FC43F31367E3F</styleUrl>
			<Polygon>
				<outerBoundaryIs>
					<LinearRing>
						<coordinates>
							-96.80888899999999,32.9613155980628,0 -96.81574226623999,32.9612246267292,0 -96.82258865879299,32.9609518039722,0 -96.82942131099421,32.9604974034301,0 -96.83623337021459,32.9598618808561,0 -96.84301800486038,32.9590458736527,0 -96.84976841134842,32.9580502002205,0 -96.8564778210514,32.9568758591224,0 -96.8631395072051,32.9555240280635,0 -96.8697467917688,32.9539960626887,0 -96.87629305223371,32.9522934951986,0 -96.8827717283696,32.9504180327852,0 -96.8891763289044,32.9483715558899,0 -96.8955004381276,32.946156116285,0 -96.90173772241261,32.9437739349802,0 -96.9078819366481,32.9412273999584,0 -96.9139269305747,32.9385190637411,0 -96.9198666550178,32.9356516407875,0 -96.92569516801071,32.9326280047287,0 -96.93140664080229,32.9294511854421,0 -96.9369953637416,32.9261243659669,0 -96.94245575203399,32.9226508792659,0 -96.9477823513633,32.9190342048354,0 -96.95296984337259,32.9152779651685,0 -96.9580130509996,32.9113859220744,0 -96.9629069436605,32.9073619728583,0 -96.9676466422771,32.9032101463656,0 -96.97222742414191,32.8989345988949,0 -96.97664472761652,32.8945396099841,0 -96.9808941566596,32.8900295780739,0 -96.98497148517821,32.8854090160537,0 -96.9888726611992,32.8806825466942,0 -96.99259381085818,32.8758548979717,0 -96.996131242199,32.8709308982893,0 -96.99948144878311,32.8659154715992,0 -97.00264111310439,32.8608136324327,0 -97.00560710980659,32.855630480841,0 -97.00837650869971,32.8503711972545,0 -97.0109465775741,32.845041037264,0 -97.01331478480959,32.8396453263301,0 -97.015478801776,32.8341894544258,0 -97.01743650502512,32.8286788706191,0 -97.0191859782723,32.8231190775991,0 -97.0207255141639,32.8175156261534,0 -97.02205361583319,32.8118741096001,0 -97.02316899823988,32.806200158183,0 -97.024070589296,32.8004994334328,0 -97.02475753077471,32.7947776225016,0 -97.02522917900399,32.789040432477,0 -97.02548510534382,32.783293584679,0 -97.02552509644771,32.7775428089491,0 -97.0253491543083,32.7717938379333,0 -97.02495749608951,32.7660524013686,0 -97.02435055374218,32.7603242203753,0 -97.0235289734097,32.7546150017634,0 -97.02249361461949,32.7489304323568,0 -97.02124554926539,32.7432761733425,0 -97.01978606038161,32.7376578546488,0 -97.01811664070891,32.7320810693593,0 -97.01623899105741,32.7265513681675,0 -97.01415501846532,32.7210742538778,0 -97.01186683415899,32.7156551759575,0 -97.00937675131451,32.7102995251458,0 -97.00668728262498,32.7050126281251,0 -97.00380113767569,32.699799742259,0 -97.00072122013059,32.6946660504027,0 -96.9974506247332,32.6896166557903,0 -96.99399263412531,32.6846565770045,0 -96.9903507154873,32.6797907430326,0 -96.98652851700308,32.6750239884142,0 -96.98252986415451,32.6703610484856,0 -96.97835875584801,32.6658065547237,0 -96.97401936037861,32.6613650301954,0 -96.96951601123499,32.6570408851166,0 -96.96485320274959,32.6528384125239,0 -96.9600355855994,32.6487617840642,0 -96.9550679621603,32.6448150459055,0 -96.9499552817214,32.641002114773,0 -96.94470263556241,32.6373267741138,0 -96.9393152519001,32.6337926703944,0 -96.9337984907088,32.6304033095335,0 -96.9281578384188,32.6271620534747,0 -96.922398902499,32.6240721169003,0 -96.91652740592872,32.6211365640918,0 -96.91054918156308,32.6183583059372,0 -96.90447016639889,32.6157400970904,0 -96.8982963957445,32.613284533283,0 -96.8920339973011,32.6109940487932,0 -96.88568918515911,32.608870914072,0 -96.8792682537166,32.6069172335303,0 -96.87277757152478,32.6051349434883,0 -96.866223575066,32.6035258102892,0 -96.85961276247079,32.6020914285792,0 -96.8529516871786,32.6008332197545,0 -96.84624695154902,32.5997524305776,0 -96.8395052004285,32.5988501319641,0 -96.8327331146791,32.5981272179401,0 -96.82593740467409,32.5975844047725,0 -96.8191248037682,32.5972222302721,0 -96.8123020617456,32.5970410532704,0 -96.8054759382544,32.5970410532704,0 -96.7986531962318,32.5972222302721,0 -96.79184059532589,32.5975844047725,0 -96.7850448853209,32.5981272179401,0 -96.7782727995714,32.5988501319641,0 -96.77153104845098,32.5997524305776,0 -96.7648263128214,32.6008332197545,0 -96.75816523752921,32.6020914285792,0 -96.751554424934,32.6035258102892,0 -96.74500042847519,32.6051349434883,0 -96.7385097462834,32.6069172335303,0 -96.73208881484089,32.608870914072,0 -96.7257440026989,32.6109940487932,0 -96.71948160425551,32.613284533283,0 -96.71330783360111,32.6157400970904,0 -96.70722881843692,32.6183583059372,0 -96.70125059407128,32.6211365640918,0 -96.695379097501,32.6240721169003,0 -96.6896201615812,32.6271620534747,0 -96.68397950929122,32.6304033095335,0 -96.6784627480999,32.6337926703944,0 -96.67307536443761,32.6373267741138,0 -96.6678227182786,32.641002114773,0 -96.6627100378397,32.6448150459055,0 -96.6577424144006,32.6487617840642,0 -96.65292479725041,32.6528384125239,0 -96.64826198876501,32.6570408851166,0 -96.6437586396214,32.6613650301954,0 -96.63941924415201,32.6658065547237,0 -96.63524813584549,32.6703610484856,0 -96.63124948299689,32.6750239884142,0 -96.62742728451271,32.6797907430325,0 -96.6237853658746,32.6846565770045,0 -96.6203273752668,32.6896166557903,0 -96.61705677986932,32.6946660504027,0 -96.61397686232429,32.699799742259,0 -96.61109071737499,32.705012628125,0 -96.6084012486855,32.7102995251457,0 -96.60591116584111,32.7156551759575,0 -96.6036229815347,32.7210742538778,0 -96.60153900894259,32.7265513681675,0 -96.5996613592911,32.7320810693592,0 -96.5979919396184,32.7376578546488,0 -96.59653245073461,32.7432761733425,0 -96.59528438538051,32.7489304323568,0 -96.5942490265903,32.7546150017634,0 -96.59342744625782,32.7603242203753,0 -96.59282050391049,32.7660524013686,0 -96.5924288456916,32.7717938379333,0 -96.59225290355231,32.7775428089491,0 -96.59229289465618,32.783293584679,0 -96.59254882099602,32.789040432477,0 -96.59302046922531,32.7947776225016,0 -96.593707410704,32.8004994334328,0 -96.59460900176012,32.806200158183,0 -96.59572438416681,32.8118741096001,0 -96.59705248583612,32.8175156261534,0 -96.5985920217277,32.8231190775991,0 -96.60034149497478,32.8286788706191,0 -96.602299198224,32.8341894544258,0 -96.60446321519041,32.8396453263301,0 -96.6068314224258,32.845041037264,0 -96.6094014913003,32.8503711972545,0 -96.61217089019338,32.855630480841,0 -96.61513688689548,32.8608136324327,0 -96.6182965512169,32.8659154715992,0 -96.621646757801,32.8709308982893,0 -96.62518418914182,32.8758548979717,0 -96.62890533880081,32.8806825466942,0 -96.63280651482179,32.8854090160537,0 -96.6368838433403,32.8900295780739,0 -96.64113327238339,32.8945396099841,0 -96.6455505758581,32.8989345988949,0 -96.6501313577228,32.9032101463656,0 -96.6548710563395,32.9073619728583,0 -96.6597649490004,32.9113859220744,0 -96.66480815662742,32.9152779651685,0 -96.6699956486367,32.9190342048354,0 -96.67532224796599,32.9226508792659,0 -96.6807826362584,32.9261243659669,0 -96.68637135919769,32.9294511854421,0 -96.6920828319892,32.9326280047287,0 -96.6979113449822,32.9356516407875,0 -96.7038510694253,32.9385190637411,0 -96.70989606335191,32.9412273999584,0 -96.7160402775874,32.9437739349802,0 -96.7222775618723,32.946156116285,0 -96.7286016710956,32.9483715558899,0 -96.7350062716304,32.9504180327852,0 -96.7414849477663,32.9522934951986,0 -96.7480312082311,32.9539960626887,0 -96.7546384927949,32.9555240280635,0 -96.7613001789486,32.9568758591224,0 -96.76800958865158,32.9580502002205,0 -96.77475999513959,32.9590458736527,0 -96.78154462978542,32.9598618808561,0 -96.78835668900579,32.9604974034301,0 -96.79518934120691,32.9609518039722,0 -96.80203573375999,32.9612246267292,0 -96.80888899999999,32.9613155980628,0 
						</coordinates>
					</LinearRing>
				</outerBoundaryIs>
			</Polygon>
		</Placemark>
	</Folder>
</Document>
</kml>
